STARLINK-37018          
1 68103U 26044C   26154.46009305  .00016087  00000+0  49947-3 0  9996
2 68103  97.2833 114.8975 0002162  47.7343 312.4083 15.33449366 14725
STARLINK-37041          
1 68104U 26044D   26154.45465522  .00027306  00000+0  84463-3 0  9991
2 68104  97.2832 114.9009 0001344  60.0514 300.0862 15.33461237 14722
STARLINK-37021          
1 68105U 26044E   26154.45194023  .00028550  00000+0  88312-3 0  9996
2 68105  97.2811 114.9060 0002520  46.8276 313.3177 15.33449828 14729
STARLINK-37024          
1 68106U 26044F   26154.44921635  .00020290  00000+0  62884-3 0  9992
2 68106  97.2841 114.9091 0001592  73.8527 286.2891 15.33458782 14724
STARLINK-37005          
1 68107U 26044G   26154.45737498  .00013506  00000+0  41993-3 0  9996
2 68107  97.2841 114.8994 0001572  92.6003 267.5419 15.33444631 14728
STARLINK-37017          
1 68108U 26044H   26154.44650227  .00041028  00000+0  12657-2 0  9994
2 68108  97.2841 114.9142 0000965  51.3767 308.7562 15.33459706 14725
STARLINK-36833          
1 68109U 26044J   26154.44106173  .00034704  00000+0  10718-2 0  9990
2 68109  97.2864 114.9218 0001230  65.6362 294.5009 15.33461090 14727
STARLINK-36830          
1 68110U 26044K   26154.44378215  .00041601  00000+0  12838-2 0  9999
2 68110  97.2850 114.9196 0001611  91.0853 269.0574 15.33445333 14726
STARLINK-36791          
1 68111U 26044L   26154.43834324  .00028324  00000+0  87641-3 0  9999
2 68111  97.2882 114.9260 0001288 107.2298 252.9086 15.33443597 14726
STARLINK-36893          
1 68112U 26044M   26154.56613428  .00043758  00000+0  13489-2 0  9990
2 68112  97.2854 115.0621 0002117  93.4270 266.7215 15.33468013 14746
STARLINK-36937          
1 68113U 26044N   26154.43018296  .00031080  00000+0  96079-3 0  9991
2 68113  97.2873 114.9398 0000740 104.1437 255.9888 15.33455240 14724
STARLINK-36229          
1 68114U 26044P   26154.43290093  .00038520  00000+0  11886-2 0  9997
2 68114  97.2889 114.9334 0001354 124.9795 235.1576 15.33467147 14724
STARLINK-36392          
1 68115U 26044Q   26154.42746982  .00030509  00000+0  94396-3 0  9997
2 68115  97.2840 114.9407 0002847 103.2397 256.9164 15.33428201 14721
STARLINK-36805          
1 68116U 26044R   26154.42474591  .00027289  00000+0  84434-3 0  9995
2 68116  97.2862 114.9464 0001025  70.5492 289.5861 15.33453704 14720
STARLINK-36844          
1 68117U 26044S   26153.83473123  .00032489  00000+0  10043-2 0  9992
2 68117  97.2856 114.3731 0002391 357.6136   2.5095 15.33443731 14637
STARLINK-36789          
1 68118U 26044T   26153.83199328  .00027261  00000+0  84229-3 0  9995
2 68118  97.2855 114.3746 0001615 108.9468 251.1950 15.33497339 14631
STARLINK-36850          
1 68119U 26044U   26153.82927790  .00025603  00000+0  79151-3 0  9993
2 68119  97.2850 114.3795 0001733  98.9250 261.2189 15.33492766 14634
STARLINK-36868          
1 68120U 26044V   26153.82657435  .00028516  00000+0  88066-3 0  9992
2 68120  97.2833 114.3819 0002263 109.8315 250.3172 15.33501620 14638
STARLINK-36855          
1 68121U 26044W   26154.47639875  .00128008  00000+0  38929-2 0  9992
2 68121  97.2854 115.0313 0002513  48.3223 311.8234 15.33507230 14738
STARLINK-36366          
1 68122U 26044X   26154.47369107  .00033741  00000+0  10424-2 0  9990
2 68122  97.2848 115.0337 0001781  82.2351 277.9094 15.33455163 14736
STARLINK-36922          
1 68123U 26044Y   26154.46824850  .00027874  00000+0  86215-3 0  9993
2 68123  97.2857 115.0425 0000819  64.3846 295.7481 15.33459717 14733
STARLINK-36938          
1 68124U 26044Z   26154.46510382  .00024484  00000+0  75797-3 0  9993
2 68124  97.2850 117.9390 0000771  49.6098 310.5212 15.33457289 14922
STARLINK-36839          
1 68125U 26044AA  26154.47096656  .00026860  00000+0  83101-3 0  9996
2 68125  97.2863 115.0382 0000622  38.3402 321.7885 15.33459180 14737
ECHOSTAR 25             
1 68126U 26045A   26154.68776653  .00000000  00000+0  00000+0 0  9994
2 68126   0.0158 337.5820 0001429 107.7740 304.4005  1.00270731   859
HULIANWANG DIGUI-155    
1 68129U 26047A   26154.92253028 -.00000106  00000+0  39288-4 0  9995
2 68129  50.0021 103.9597 0000356  43.2262 316.8638 13.29331075 11307
HULIANWANG DIGUI-156    
1 68130U 26047B   26154.91416688 -.00000103  00000+0  45987-4 0  9999
2 68130  50.0022 103.9177 0000339  38.6945 321.3951 13.29331310 11290
HULIANWANG DIGUI-157    
1 68131U 26047C   26154.90583526 -.00000099  00000+0  53071-4 0  9992
2 68131  49.9993 103.8542 0000344  40.4192 319.6706 13.29330450 11305
HULIANWANG DIGUI-158    
1 68132U 26047D   26154.89747505 -.00000095  00000+0  62470-4 0  9999
2 68132  50.0038 103.8449 0000400  50.0383 310.0524 13.29331262 11290
HULIANWANG DIGUI-159    
1 68133U 26047E   26154.88911721 -.00000102  00000+0  47527-4 0  9997
2 68133  50.0008 103.7788 0000545  39.2804 320.8108 13.29331577 11308
HULIANWANG DIGUI-160    
1 68134U 26047F   26154.87239328 -.00000107  00000+0  36612-4 0  9991
2 68134  50.0065 103.7349 0000637  28.0331 332.0576 13.29332652 11295
