OBJECT_NAME,OBJECT_ID,EPOCH,MEAN_MOTION,ECCENTRICITY,INCLINATION,RA_OF_ASC_NODE,ARG_OF_PERICENTER,MEAN_ANOMALY,EPHEMERIS_TYPE,CLASSIFICATION_TYPE,NORAD_CAT_ID,ELEMENT_SET_NO,REV_AT_EPOCH,BSTAR,MEAN_MOTION_DOT,MEAN_MOTION_DDOT
STARLINK-37018,2026-044C,2026-06-03T11:02:32.039520,15.33449366,.00021623,97.2833,114.8975,47.7343,312.4083,0,U,68103,999,1472,.49947199E-3,.16087E-3,0
STARLINK-37041,2026-044D,2026-06-03T10:54:42.211008,15.33461237,.00013446,97.2832,114.9009,60.0514,300.0862,0,U,68104,999,1472,.84462959E-3,.27306E-3,0
STARLINK-37021,2026-044E,2026-06-03T10:50:47.635872,15.33449828,.00025204,97.2811,114.9060,46.8276,313.3177,0,U,68105,999,1472,.88312327E-3,.2855E-3,0
STARLINK-37024,2026-044F,2026-06-03T10:46:52.292640,15.33458782,.00015927,97.2841,114.9091,73.8527,286.2891,0,U,68106,999,1472,.62883647E-3,.2029E-3,0
STARLINK-37005,2026-044G,2026-06-03T10:58:37.198272,15.33444631,.00015722,97.2841,114.8994,92.6003,267.5419,0,U,68107,999,1472,.4199256E-3,.13506E-3,0
STARLINK-37017,2026-044H,2026-06-03T10:42:57.796128,15.33459706,.00009655,97.2841,114.9142,51.3767,308.7562,0,U,68108,999,1472,.12657237E-2,.41028E-3,0
STARLINK-36833,2026-044J,2026-06-03T10:35:07.733472,15.33461090,.000123,97.2864,114.9218,65.6362,294.5009,0,U,68109,999,1472,.10718268E-2,.34704E-3,0
STARLINK-36830,2026-044K,2026-06-03T10:39:02.777760,15.33445333,.00016116,97.2850,114.9196,91.0853,269.0574,0,U,68110,999,1472,.12838064E-2,.41601E-3,0
STARLINK-36791,2026-044L,2026-06-03T10:31:12.855936,15.33443597,.00012888,97.2882,114.9260,107.2298,252.9086,0,U,68111,999,1472,.87640568E-3,.28324E-3,0
STARLINK-36893,2026-044M,2026-06-03T13:35:14.001792,15.33468013,.0002117,97.2854,115.0621,93.4270,266.7215,0,U,68112,999,1474,.13489E-2,.43758E-3,0
STARLINK-36937,2026-044N,2026-06-03T10:19:27.807744,15.33455240,.00007401,97.2873,114.9398,104.1437,255.9888,0,U,68113,999,1472,.96078614E-3,.3108E-3,0
STARLINK-36229,2026-044P,2026-06-03T10:23:22.640352,15.33467147,.00013546,97.2889,114.9334,124.9795,235.1576,0,U,68114,999,1472,.11885833E-2,.3852E-3,0
STARLINK-36392,2026-044Q,2026-06-03T10:15:33.392448,15.33428201,.00028473,97.2840,114.9407,103.2397,256.9164,0,U,68115,999,1472,.94396011E-3,.30509E-3,0
STARLINK-36805,2026-044R,2026-06-03T10:11:38.046624,15.33453704,.0001025,97.2862,114.9464,70.5492,289.5861,0,U,68116,999,1472,.84434425E-3,.27289E-3,0
STARLINK-36844,2026-044S,2026-06-02T20:02:00.778272,15.33443731,.00023914,97.2856,114.3731,357.6136,2.5095,0,U,68117,999,1463,.1004332E-2,.32489E-3,0
STARLINK-36789,2026-044T,2026-06-02T19:58:04.219392,15.33497339,.00016158,97.2855,114.3746,108.9468,251.1950,0,U,68118,999,1463,.84228927E-3,.27261E-3,0
STARLINK-36850,2026-044U,2026-06-02T19:54:09.610560,15.33492766,.00017333,97.2850,114.3795,98.9250,261.2189,0,U,68119,999,1463,.79150544E-3,.25603E-3,0
STARLINK-36868,2026-044V,2026-06-02T19:50:16.023840,15.33501620,.00022636,97.2833,114.3819,109.8315,250.3172,0,U,68120,999,1463,.88066048E-3,.28516E-3,0
STARLINK-36855,2026-044W,2026-06-03T11:26:00.852000,15.33507230,.00025137,97.2854,115.0313,48.3223,311.8234,0,U,68121,999,1473,.38929412E-2,.128008E-2,0
STARLINK-36366,2026-044X,2026-06-03T11:22:06.908448,15.33455163,.00017816,97.2848,115.0337,82.2351,277.9094,0,U,68122,999,1473,.10424315E-2,.33741E-3,0
STARLINK-36922,2026-044Y,2026-06-03T11:14:16.670400,15.33459717,.00008192,97.2857,115.0425,64.3846,295.7481,0,U,68123,999,1473,.86214962E-3,.27874E-3,0
STARLINK-36938,2026-044Z,2026-06-03T11:09:44.970048,15.33457289,.00007715,97.2850,117.9390,49.6098,310.5212,0,U,68124,999,1492,.75796526E-3,.24484E-3,0
STARLINK-36839,2026-044AA,2026-06-03T11:18:11.510784,15.33459180,.00006229,97.2863,115.0382,38.3402,321.7885,0,U,68125,999,1473,.83101404E-3,.2686E-3,0
ECHOSTAR 25,2026-045A,2026-06-03T16:30:23.028192,1.00270731,.00014298,0.0158,337.5820,107.7740,304.4005,0,U,68126,999,85,0,0,0
HULIANWANG DIGUI-155,2026-047A,2026-06-03T22:08:26.616192,13.29331075,.00003566,50.0021,103.9597,43.2262,316.8638,0,U,68129,999,1130,.39287837E-4,-.106E-5,0
HULIANWANG DIGUI-156,2026-047B,2026-06-03T21:56:24.018432,13.29331310,.00003391,50.0022,103.9177,38.6945,321.3951,0,U,68130,999,1129,.45987462E-4,-.103E-5,0
HULIANWANG DIGUI-157,2026-047C,2026-06-03T21:44:24.166464,13.29330450,.00003447,49.9993,103.8542,40.4192,319.6706,0,U,68131,999,1130,.53071446E-4,-.99E-6,0
HULIANWANG DIGUI-158,2026-047D,2026-06-03T21:32:21.844320,13.29331262,.00004003,50.0038,103.8449,50.0383,310.0524,0,U,68132,999,1129,.62469873E-4,-.95E-6,0
HULIANWANG DIGUI-159,2026-047E,2026-06-03T21:20:19.726944,13.29331577,.00005453,50.0008,103.7788,39.2804,320.8108,0,U,68133,999,1130,.47527164E-4,-.102E-5,0
HULIANWANG DIGUI-160,2026-047F,2026-06-03T20:56:14.779392,13.29332652,.00006373,50.0065,103.7349,28.0331,332.0576,0,U,68134,999,1129,.36612142E-4,-.107E-5,0
